[{"OBJECT_NAME":"STARLINK-3814","OBJECT_ID":"2022-045E","EPOCH":"2026-03-09T16:57:12.384576","MEAN_MOTION":15.08855962,"ECCENTRICITY":0.00013385,"INCLINATION":53.2183,"RA_OF_ASC_NODE":209.0449,"ARG_OF_PERICENTER":67.7839,"MEAN_ANOMALY":292.3295,"EPHEMERIS_TYPE":0,"CLASSIFICATION_TYPE":"U","NORAD_CAT_ID":52335,"ELEMENT_SET_NO":999,"REV_AT_EPOCH":21564,"BSTAR":0.00014923953,"MEAN_MOTION_DOT":2.089e-5,"MEAN_MOTION_DDOT":0},{"OBJECT_NAME":"CZ-6A R\/B","OBJECT_ID":"2026-006B","EPOCH":"2026-03-09T16:33:28.241280","MEAN_MOTION":14.62408141,"ECCENTRICITY":0.02011935,"INCLINATION":142.0446,"RA_OF_ASC_NODE":130.9033,"ARG_OF_PERICENTER":126.5877,"MEAN_ANOMALY":235.3545,"EPHEMERIS_TYPE":0,"CLASSIFICATION_TYPE":"U","NORAD_CAT_ID":67434,"ELEMENT_SET_NO":999,"REV_AT_EPOCH":807,"BSTAR":0.00025316121,"MEAN_MOTION_DOT":2.077e-5,"MEAN_MOTION_DDOT":0}]
